{
  "type": "FeatureCollection",
  "features": [
    {
      "type": "Feature",
      "properties": {
        "norad_id": 37781,
        "name": "HAIYANG-2A",
        "group": "resource",
        "lat": 20.009471712591644,
        "lon": -25.150460360374893,
        "alt_km": 967.6693322996762,
        "timestamp": "2025-12-03T04:52:29.298206+00:00",
        "meta_object_name": "HAIYANG-2A",
        "meta_object_id": "2011-043A",
        "meta_epoch": "2025-12-02T20:04:08.656320",
        "meta_mean_motion": 13.78834124,
        "meta_eccentricity": 0.000164,
        "meta_inclination": 99.3377,
        "meta_ra_of_asc_node": 337.9233,
        "meta_arg_of_pericenter": 97.8047,
        "meta_mean_anomaly": 262.329,
        "meta_ephemeris_type": 0,
        "meta_classification_type": "U",
        "meta_norad_cat_id": 37781,
        "meta_element_set_no": 999,
        "meta_rev_at_epoch": 71962,
        "meta_bstar": 6.4178e-05,
        "meta_mean_motion_dot": 2.1e-07,
        "meta_mean_motion_ddot": 0,
        "tle_line1": "1 37781U 11043A   25336.83621130  .00000021  00000+0  64178-4 0  9990",
        "tle_line2": "2 37781  99.3377 337.9233 0001640  97.8047 262.3290 13.78834124719622"
      },
      "geometry": {
        "type": "Point",
        "coordinates": [
          -25.150460360374893,
          20.009471712591644
        ]
      }
    },
    {
      "type": "Feature",
      "properties": {
        "norad_id": 37791,
        "name": "RASAT",
        "group": "resource",
        "lat": -35.48600925364262,
        "lon": 72.40464680392462,
        "alt_km": 683.9337149974235,
        "timestamp": "2025-12-03T04:52:29.298217+00:00",
        "meta_object_name": "RASAT",
        "meta_object_id": "2011-044D",
        "meta_epoch": "2025-12-02T21:24:47.528928",
        "meta_mean_motion": 14.67886313,
        "meta_eccentricity": 0.0021965,
        "meta_inclination": 98.0657,
        "meta_ra_of_asc_node": 66.2961,
        "meta_arg_of_pericenter": 94.6582,
        "meta_mean_anomaly": 27.8114,
        "meta_ephemeris_type": 0,
        "meta_classification_type": "U",
        "meta_norad_cat_id": 37791,
        "meta_element_set_no": 999,
        "meta_rev_at_epoch": 76438,
        "meta_bstar": 0.00016272,
        "meta_mean_motion_dot": 8.84e-06,
        "meta_mean_motion_ddot": 0,
        "tle_line1": "1 37791U 11044D   25336.89221677  .00000884  00000+0  16272-3 0  9998",
        "tle_line2": "2 37791  98.0657  66.2961 0021965  94.6582  27.8114 14.67886313764389"
      },
      "geometry": {
        "type": "Point",
        "coordinates": [
          72.40464680392462,
          -35.48600925364262
        ]
      }
    },
    {
      "type": "Feature",
      "properties": {
        "norad_id": 37841,
        "name": "SRMSAT",
        "group": "resource",
        "lat": 18.740041914800756,
        "lon": -83.42901657921168,
        "alt_km": 850.3518911773408,
        "timestamp": "2025-12-03T04:52:29.298227+00:00",
        "meta_object_name": "SRMSAT",
        "meta_object_id": "2011-058D",
        "meta_epoch": "2025-12-02T13:11:57.275808",
        "meta_mean_motion": 14.11505758,
        "meta_eccentricity": 0.00117424,
        "meta_inclination": 19.9698,
        "meta_ra_of_asc_node": 169.6251,
        "meta_arg_of_pericenter": 200.5325,
        "meta_mean_anomaly": 183.2256,
        "meta_ephemeris_type": 0,
        "meta_classification_type": "U",
        "meta_norad_cat_id": 37841,
        "meta_element_set_no": 999,
        "meta_rev_at_epoch": 73000,
        "meta_bstar": 0.00011467524,
        "meta_mean_motion_dot": 4.76e-06,
        "meta_mean_motion_ddot": 0,
        "tle_line1": "1 37841U 11058D   25336.54996847  .00000476  00000+0  11468-3 0  9998",
        "tle_line2": "2 37841  19.9698 169.6251 0011742 200.5325 183.2256 14.11505758730003"
      },
      "geometry": {
        "type": "Point",
        "coordinates": [
          -83.42901657921168,
          18.740041914800756
        ]
      }
    },
    {
      "type": "Feature",
      "properties": {
        "norad_id": 38012,
        "name": "PLEIADES 1A",
        "group": "resource",
        "lat": 76.94786593414334,
        "lon": 11.749032896770158,
        "alt_km": 689.6183811104065,
        "timestamp": "2025-12-03T04:52:29.298237+00:00",
        "meta_object_name": "PLEIADES 1A",
        "meta_object_id": "2011-076F",
        "meta_epoch": "2025-12-02T20:51:13.024800",
        "meta_mean_motion": 14.58545438,
        "meta_eccentricity": 0.0001415,
        "meta_inclination": 98.1834,
        "meta_ra_of_asc_node": 49.7893,
        "meta_arg_of_pericenter": 81.5303,
        "meta_mean_anomaly": 44.4403,
        "meta_ephemeris_type": 0,
        "meta_classification_type": "U",
        "meta_norad_cat_id": 38012,
        "meta_element_set_no": 999,
        "meta_rev_at_epoch": 74337,
        "meta_bstar": 0.00013345,
        "meta_mean_motion_dot": 5.75e-06,
        "meta_mean_motion_ddot": 0,
        "tle_line1": "1 38012U 11076F   25336.86890075  .00000575  00000+0  13345-3 0  9996",
        "tle_line2": "2 38012  98.1834  49.7893 0001415  81.5303  44.4403 14.58545438743370"
      },
      "geometry": {
        "type": "Point",
        "coordinates": [
          11.749032896770158,
          76.94786593414334
        ]
      }
    },
    {
      "type": "Feature",
      "properties": {
        "norad_id": 38038,
        "name": "ZIYUAN 1-02C (ZY 1-02C)",
        "group": "resource",
        "lat": -27.77967382235132,
        "lon": 47.875237116262525,
        "alt_km": 775.6010666249203,
        "timestamp": "2025-12-03T04:52:29.298247+00:00",
        "meta_object_name": "ZIYUAN 1-02C (ZY 1-02C)",
        "meta_object_id": "2011-079A",
        "meta_epoch": "2025-12-02T21:12:34.927776",
        "meta_mean_motion": 14.37993795,
        "meta_eccentricity": 0.0006749,
        "meta_inclination": 98.4347,
        "meta_ra_of_asc_node": 43.0786,
        "meta_arg_of_pericenter": 165.8032,
        "meta_mean_anomaly": 313.7778,
        "meta_ephemeris_type": 0,
        "meta_classification_type": "U",
        "meta_norad_cat_id": 38038,
        "meta_element_set_no": 999,
        "meta_rev_at_epoch": 73099,
        "meta_bstar": 0.00024214,
        "meta_mean_motion_dot": 6.89e-06,
        "meta_mean_motion_ddot": 0,
        "tle_line1": "1 38038U 11079A   25336.88373759  .00000689  00000+0  24214-3 0  9997",
        "tle_line2": "2 38038  98.4347  43.0786 0006749 165.8032 313.7778 14.37993795730999"
      },
      "geometry": {
        "type": "Point",
        "coordinates": [
          47.875237116262525,
          -27.77967382235132
        ]
      }
    },
    {
      "type": "Feature",
      "properties": {
        "norad_id": 38046,
        "name": "ZIYUAN 3-1 (ZY 3-1)",
        "group": "resource",
        "lat": 3.3728485028996067,
        "lon": 42.984327128365756,
        "alt_km": 369.682715728959,
        "timestamp": "2025-12-03T04:52:29.298257+00:00",
        "meta_object_name": "ZIYUAN 3-1 (ZY 3-1)",
        "meta_object_id": "2012-001A",
        "meta_epoch": "2025-12-02T21:11:44.977344",
        "meta_mean_motion": 15.66680491,
        "meta_eccentricity": 0.0002162,
        "meta_inclination": 97.1782,
        "meta_ra_of_asc_node": 43.0832,
        "meta_arg_of_pericenter": 32.8232,
        "meta_mean_anomaly": 327.3163,
        "meta_ephemeris_type": 0,
        "meta_classification_type": "U",
        "meta_norad_cat_id": 38046,
        "meta_element_set_no": 999,
        "meta_rev_at_epoch": 77342,
        "meta_bstar": 0.00072395,
        "meta_mean_motion_dot": 0.00076344,
        "meta_mean_motion_ddot": 0,
        "tle_line1": "1 38046U 12001A   25336.88315946  .00076344  00000+0  72395-3 0  9990",
        "tle_line2": "2 38046  97.1782  43.0832 0002162  32.8232 327.3163 15.66680491773422"
      },
      "geometry": {
        "type": "Point",
        "coordinates": [
          42.984327128365756,
          3.3728485028996067
        ]
      }
    },
    {
      "type": "Feature",
      "properties": {
        "norad_id": 38338,
        "name": "ARIRANG-3 (KOMPSAT-3)",
        "group": "resource",
        "lat": -48.51544848693811,
        "lon": 102.1829635718669,
        "alt_km": 697.8198518144172,
        "timestamp": "2025-12-03T04:52:29.298267+00:00",
        "meta_object_name": "ARIRANG-3 (KOMPSAT-3)",
        "meta_object_id": "2012-025B",
        "meta_epoch": "2025-12-02T21:15:28.514016",
        "meta_mean_motion": 14.61690715,
        "meta_eccentricity": 0.0006059,
        "meta_inclination": 98.3307,
        "meta_ra_of_asc_node": 291.4018,
        "meta_arg_of_pericenter": 9.6721,
        "meta_mean_anomaly": 350.4595,
        "meta_ephemeris_type": 0,
        "meta_classification_type": "U",
        "meta_norad_cat_id": 38338,
        "meta_element_set_no": 999,
        "meta_rev_at_epoch": 72266,
        "meta_bstar": 0.00018073,
        "meta_mean_motion_dot": 8.52e-06,
        "meta_mean_motion_ddot": 0,
        "tle_line1": "1 38338U 12025B   25336.88574669  .00000852  00000+0  18073-3 0  9993",
        "tle_line2": "2 38338  98.3307 291.4018 0006059   9.6721 350.4595 14.61690715722661"
      },
      "geometry": {
        "type": "Point",
        "coordinates": [
          102.1829635718669,
          -48.51544848693811
        ]
      }
    }
  ]
}